{
  "type": "FeatureCollection",
  "features": [
    {
      "type": "Feature",
      "properties": {
        "norad_id": 38755,
        "name": "SPOT 6",
        "group": "resource",
        "lat": -59.65540811436024,
        "lon": 73.97648294099334,
        "alt_km": 705.7228741578638,
        "timestamp": "2025-12-21T03:56:50.511500+00:00",
        "meta_object_name": "SPOT 6",
        "meta_object_id": "2012-047A",
        "meta_epoch": "2025-12-20T19:59:34.186848",
        "meta_mean_motion": 14.58538432,
        "meta_eccentricity": 0.0001328,
        "meta_inclination": 98.1569,
        "meta_ra_of_asc_node": 59.4687,
        "meta_arg_of_pericenter": 78.248,
        "meta_mean_anomaly": 281.8868,
        "meta_ephemeris_type": 0,
        "meta_classification_type": "U",
        "meta_norad_cat_id": 38755,
        "meta_element_set_no": 999,
        "meta_rev_at_epoch": 70705,
        "meta_bstar": 4.1505e-05,
        "meta_mean_motion_dot": 1.48e-06,
        "meta_mean_motion_ddot": 0,
        "tle_line1": "1 38755U 12047A   25354.83303457  .00000148  00000+0  41505-4 0  9995",
        "tle_line2": "2 38755  98.1569  59.4687 0001328  78.2480 281.8868 14.58538432707053"
      },
      "geometry": {
        "type": "Point",
        "coordinates": [
          73.97648294099334,
          -59.65540811436024
        ]
      }
    },
    {
      "type": "Feature",
      "properties": {
        "norad_id": 39019,
        "name": "PLEIADES 1B",
        "group": "resource",
        "lat": -17.458453326966517,
        "lon": -114.90915808937842,
        "alt_km": 703.1147660632932,
        "timestamp": "2025-12-21T03:56:50.511509+00:00",
        "meta_object_name": "PLEIADES 1B",
        "meta_object_id": "2012-068A",
        "meta_epoch": "2025-12-20T20:27:32.103360",
        "meta_mean_motion": 14.58559041,
        "meta_eccentricity": 0.0001189,
        "meta_inclination": 98.1793,
        "meta_ra_of_asc_node": 67.3764,
        "meta_arg_of_pericenter": 84.9914,
        "meta_mean_anomaly": 275.1421,
        "meta_ephemeris_type": 0,
        "meta_classification_type": "U",
        "meta_norad_cat_id": 39019,
        "meta_element_set_no": 999,
        "meta_rev_at_epoch": 69485,
        "meta_bstar": 3.7413e-05,
        "meta_mean_motion_dot": 1.28e-06,
        "meta_mean_motion_ddot": 0,
        "tle_line1": "1 39019U 12068A   25354.85245490  .00000128  00000+0  37413-4 0  9997",
        "tle_line2": "2 39019  98.1793  67.3764 0001189  84.9914 275.1421 14.58559041694854"
      },
      "geometry": {
        "type": "Point",
        "coordinates": [
          -114.90915808937842,
          -17.458453326966517
        ]
      }
    },
    {
      "type": "Feature",
      "properties": {
        "norad_id": 39030,
        "name": "GOKTURK 2",
        "group": "resource",
        "lat": -19.470340355541854,
        "lon": 13.665826845838748,
        "alt_km": 649.4156243258212,
        "timestamp": "2025-12-21T03:56:50.511518+00:00",
        "meta_object_name": "GOKTURK 2",
        "meta_object_id": "2012-073A",
        "meta_epoch": "2025-12-20T20:32:04.932096",
        "meta_mean_motion": 14.75301608,
        "meta_eccentricity": 0.0001287,
        "meta_inclination": 97.6886,
        "meta_ra_of_asc_node": 196.1098,
        "meta_arg_of_pericenter": 107.0259,
        "meta_mean_anomaly": 253.1092,
        "meta_ephemeris_type": 0,
        "meta_classification_type": "U",
        "meta_norad_cat_id": 39030,
        "meta_element_set_no": 999,
        "meta_rev_at_epoch": 69821,
        "meta_bstar": 9.5306e-05,
        "meta_mean_motion_dot": 5.98e-06,
        "meta_mean_motion_ddot": 0,
        "tle_line1": "1 39030U 12073A   25354.85561264  .00000598  00000+0  95306-4 0  9992",
        "tle_line2": "2 39030  97.6886 196.1098 0001287 107.0259 253.1092 14.75301608698210"
      },
      "geometry": {
        "type": "Point",
        "coordinates": [
          13.665826845838748,
          -19.470340355541854
        ]
      }
    },
    {
      "type": "Feature",
      "properties": {
        "norad_id": 39084,
        "name": "LANDSAT 8",
        "group": "resource",
        "lat": -35.82780109836244,
        "lon": 69.09331865238788,
        "alt_km": 709.2681704336001,
        "timestamp": "2025-12-21T03:56:50.511528+00:00",
        "meta_object_name": "LANDSAT 8",
        "meta_object_id": "2013-008A",
        "meta_epoch": "2025-12-20T18:13:30.053568",
        "meta_mean_motion": 14.57109994,
        "meta_eccentricity": 0.0001085,
        "meta_inclination": 98.2062,
        "meta_ra_of_asc_node": 62.7141,
        "meta_arg_of_pericenter": 90.9879,
        "meta_mean_anomaly": 269.1443,
        "meta_ephemeris_type": 0,
        "meta_classification_type": "U",
        "meta_norad_cat_id": 39084,
        "meta_element_set_no": 999,
        "meta_rev_at_epoch": 67191,
        "meta_bstar": 7.2619e-05,
        "meta_mean_motion_dot": 2.82e-06,
        "meta_mean_motion_ddot": 0,
        "tle_line1": "1 39084U 13008A   25354.75937562  .00000282  00000+0  72619-4 0  9999",
        "tle_line2": "2 39084  98.2062  62.7141 0001085  90.9879 269.1443 14.57109994671912"
      },
      "geometry": {
        "type": "Point",
        "coordinates": [
          69.09331865238788,
          -35.82780109836244
        ]
      }
    },
    {
      "type": "Feature",
      "properties": {
        "norad_id": 39086,
        "name": "SARAL",
        "group": "resource",
        "lat": -66.41474303004726,
        "lon": -160.85825668572357,
        "alt_km": 791.735573183114,
        "timestamp": "2025-12-21T03:56:50.511537+00:00",
        "meta_object_name": "SARAL",
        "meta_object_id": "2013-009A",
        "meta_epoch": "2025-12-20T18:12:28.066752",
        "meta_mean_motion": 14.32759549,
        "meta_eccentricity": 0.0002962,
        "meta_inclination": 98.5502,
        "meta_ra_of_asc_node": 178.5844,
        "meta_arg_of_pericenter": 93.5754,
        "meta_mean_anomaly": 266.5768,
        "meta_ephemeris_type": 0,
        "meta_classification_type": "U",
        "meta_norad_cat_id": 39086,
        "meta_element_set_no": 999,
        "meta_rev_at_epoch": 67005,
        "meta_bstar": 4.3581e-05,
        "meta_mean_motion_dot": 7.5e-07,
        "meta_mean_motion_ddot": 0,
        "tle_line1": "1 39086U 13009A   25354.75865818  .00000075  00000+0  43581-4 0  9992",
        "tle_line2": "2 39086  98.5502 178.5844 0002962  93.5754 266.5768 14.32759549670053"
      },
      "geometry": {
        "type": "Point",
        "coordinates": [
          -160.85825668572357,
          -66.41474303004726
        ]
      }
    },
    {
      "type": "Feature",
      "properties": {
        "norad_id": 39150,
        "name": "GAOFEN-1",
        "group": "resource",
        "lat": -44.627708985960936,
        "lon": 73.58581593757754,
        "alt_km": 659.4522667641759,
        "timestamp": "2025-12-21T03:56:50.511561+00:00",
        "meta_object_name": "GAOFEN-1",
        "meta_object_id": "2013-018A",
        "meta_epoch": "2025-12-20T20:01:11.489664",
        "meta_mean_motion": 14.76492803,
        "meta_eccentricity": 0.0018397,
        "meta_inclination": 97.9324,
        "meta_ra_of_asc_node": 65.3506,
        "meta_arg_of_pericenter": 118.399,
        "meta_mean_anomaly": 241.9077,
        "meta_ephemeris_type": 0,
        "meta_classification_type": "U",
        "meta_norad_cat_id": 39150,
        "meta_element_set_no": 999,
        "meta_rev_at_epoch": 68192,
        "meta_bstar": 8.3497e-05,
        "meta_mean_motion_dot": 5.32e-06,
        "meta_mean_motion_ddot": 0,
        "tle_line1": "1 39150U 13018A   25354.83416076  .00000532  00000+0  83497-4 0  9999",
        "tle_line2": "2 39150  97.9324  65.3506 0018397 118.3990 241.9077 14.76492803681928"
      },
      "geometry": {
        "type": "Point",
        "coordinates": [
          73.58581593757754,
          -44.627708985960936
        ]
      }
    },
    {
      "type": "Feature",
      "properties": {
        "norad_id": 39160,
        "name": "VNREDSAT 1",
        "group": "resource",
        "lat": 25.834785366400528,
        "lon": 46.271305952409335,
        "alt_km": 675.9318238922742,
        "timestamp": "2025-12-21T03:56:50.511571+00:00",
        "meta_object_name": "VNREDSAT 1",
        "meta_object_id": "2013-021B",
        "meta_epoch": "2025-12-20T21:16:17.249664",
        "meta_mean_motion": 14.64933992,
        "meta_eccentricity": 0.0001206,
        "meta_inclination": 97.9367,
        "meta_ra_of_asc_node": 49.8759,
        "meta_arg_of_pericenter": 80.8923,
        "meta_mean_anomaly": 279.2417,
        "meta_ephemeris_type": 0,
        "meta_classification_type": "U",
        "meta_norad_cat_id": 39160,
        "meta_element_set_no": 999,
        "meta_rev_at_epoch": 67418,
        "meta_bstar": 9.5448e-05,
        "meta_mean_motion_dot": 4.65e-06,
        "meta_mean_motion_ddot": 0,
        "tle_line1": "1 39160U 13021B   25354.88631076  .00000465  00000+0  95448-4 0  9992",
        "tle_line2": "2 39160  97.9367  49.8759 0001206  80.8923 279.2417 14.64933992674181"
      },
      "geometry": {
        "type": "Point",
        "coordinates": [
          46.271305952409335,
          25.834785366400528
        ]
      }
    }
  ]
}